*******************************************************************************
JPL/HORIZONS              50000 Quaoar (2002 LM60)         2020-May-08 22:13:14
Rec #:   50000 (+COV) Soln.date: 2019-Sep-24_02:17:32    # obs: 464 (1954-2019)
 
IAU76/J2000 helio. ecliptic osc. elements (au, days, deg., period=Julian yrs):
 
  EPOCH=  2454461.5 ! 2007-Dec-27.00 (TDB)         Residual RMS= .39047
   EC= .03798470378725044  QR= 41.96002559497733   TP= 2476433.343485164
   OM= 188.8659720746321   W=  148.0341992200528   IN= 7.987373088477922
   A= 43.61679669768773    MA= 284.8221467309793   ADIST= 45.27356780039812
   PER= 288.06392          N= .003421554           ANGMOM= .113525857
   DAN= 45.00412           DDN= 42.19416           L= 337.1504988
   B= 4.2187463            MOID= 40.95439911       TP= 2068-Feb-21.8434851640
 
Asteroid physical parameters (km, seconds, rotational period in hours):
   GM= n.a.                RAD= n.a.               ROTPER= 8.84
   H= 2.4                  G= .150                 B-V= n.a.
                           ALBEDO= n.a.            STYP= n.a.
 
ASTEROID comments: 
1: soln ref.= JPL#35, OCC=3
2: source=ORB
*******************************************************************************
 

 

*******************************************************************************
Ephemeris / WWW_USER Fri May  8 22:13:14 2020 Pasadena, USA      / Horizons    
*******************************************************************************
Target body name: 50000 Quaoar (2002 LM60)        {source: JPL#35}
Center body name: Solar System Barycenter (0)     {source: DE431}
Center-site name: BODY CENTER
*******************************************************************************
Start time      : A.D. 2030-Feb-07 00:00:00.0000 TDB
Stop  time      : A.D. 2040-Dec-31 00:00:00.0000 TDB
Step-size       : 10080 minutes
*******************************************************************************
Center geodetic : 0.00000000,0.00000000,0.0000000 {E-lon(deg),Lat(deg),Alt(km)}
Center cylindric: 0.00000000,0.00000000,0.0000000 {E-lon(deg),Dxy(km),Dz(km)}
Center radii    : (undefined)                                                  
Small perturbers: Yes                             {source: SB431-N16}
Output units    : AU-D                                                         
Output type     : GEOMETRIC cartesian states
Output format   : 1 (position only)
Reference frame : ICRF/J2000.0                                                 
Coordinate systm: Ecliptic and Mean Equinox of Reference Epoch                 
*******************************************************************************
Initial IAU76/J2000 heliocentric ecliptic osculating elements (au, days, deg.):
  EPOCH=  2454461.5 ! 2007-Dec-27.00 (TDB)         Residual RMS= .39047        
   EC= .03798470378725044  QR= 41.96002559497733   TP= 2476433.343485164       
   OM= 188.8659720746321   W=  148.0341992200528   IN= 7.987373088477922       
  Equivalent ICRF heliocentric equatorial cartesian coordinates (au, au/d):
   X=-9.446372367554140E+00  Y=-4.060954159976508E+01  Z=-1.150728796655740E+01
  VX= 2.581995758795716E-03 VY=-4.757122390687545E-04 VZ=-7.492974098593908E-05
Asteroid physical parameters (km, seconds, rotational period in hours):        
   GM= n.a.                RAD= n.a.               ROTPER= 8.84                
   H= 2.4                  G= .150                 B-V= n.a.                   
                           ALBEDO= n.a.            STYP= n.a.                  
*******************************************************************************
JDTDB
   X     Y     Z
*******************************************************************************
$$SOE
2466312.500000000 = A.D. 2040-Jun-07 00:00:00.0000 TDB 
   2.081385838244342E+01 -3.630758829768062E+01  5.487894471751972E+00
2466319.500000000 = A.D. 2040-Jun-14 00:00:00.0000 TDB 
   2.082994530013424E+01 -3.629793691568636E+01  5.486905826057717E+00
2466326.500000000 = A.D. 2040-Jun-21 00:00:00.0000 TDB 
   2.084602819605479E+01 -3.628827852516368E+01  5.485916120906938E+00
2466333.500000000 = A.D. 2040-Jun-28 00:00:00.0000 TDB 
   2.086210706695947E+01 -3.627861312773683E+01  5.484925356454695E+00
2466340.500000000 = A.D. 2040-Jul-05 00:00:00.0000 TDB 
   2.087818190960327E+01 -3.626894072503165E+01  5.483933532856259E+00
2466347.500000000 = A.D. 2040-Jul-12 00:00:00.0000 TDB 
   2.089425272074172E+01 -3.625926131867553E+01  5.482940650267137E+00
2466354.500000000 = A.D. 2040-Jul-19 00:00:00.0000 TDB 
   2.091031949713089E+01 -3.624957491029750E+01  5.481946708843060E+00
2466361.500000000 = A.D. 2040-Jul-26 00:00:00.0000 TDB 
   2.092638223552743E+01 -3.623988150152807E+01  5.480951708739984E+00
2466368.500000000 = A.D. 2040-Aug-02 00:00:00.0000 TDB 
   2.094244093268852E+01 -3.623018109399937E+01  5.479955650114089E+00
2466375.500000000 = A.D. 2040-Aug-09 00:00:00.0000 TDB 
   2.095849558537193E+01 -3.622047368934509E+01  5.478958533121778E+00
2466382.500000000 = A.D. 2040-Aug-16 00:00:00.0000 TDB 
   2.097454619033594E+01 -3.621075928920050E+01  5.477960357919682E+00
2466389.500000000 = A.D. 2040-Aug-23 00:00:00.0000 TDB 
   2.099059274433940E+01 -3.620103789520241E+01  5.476961124664645E+00
2466396.500000000 = A.D. 2040-Aug-30 00:00:00.0000 TDB 
   2.100663524414173E+01 -3.619130950898921E+01  5.475960833513749E+00
2466403.500000000 = A.D. 2040-Sep-06 00:00:00.0000 TDB 
   2.102267368650289E+01 -3.618157413220084E+01  5.474959484624280E+00
2466410.500000000 = A.D. 2040-Sep-13 00:00:00.0000 TDB 
   2.103870806818341E+01 -3.617183176647880E+01  5.473957078153769E+00
2466417.500000000 = A.D. 2040-Sep-20 00:00:00.0000 TDB 
   2.105473838594434E+01 -3.616208241346616E+01  5.472953614259945E+00
2466424.500000000 = A.D. 2040-Sep-27 00:00:00.0000 TDB 
   2.107076463654733E+01 -3.615232607480753E+01  5.471949093100771E+00
2466431.500000000 = A.D. 2040-Oct-04 00:00:00.0000 TDB 
   2.108678681675456E+01 -3.614256275214908E+01  5.470943514834432E+00
2466438.500000000 = A.D. 2040-Oct-11 00:00:00.0000 TDB 
   2.110280492332878E+01 -3.613279244713853E+01  5.469936879619326E+00
2466445.500000000 = A.D. 2040-Oct-18 00:00:00.0000 TDB 
   2.111881895303328E+01 -3.612301516142516E+01  5.468929187614083E+00
2466452.500000000 = A.D. 2040-Oct-25 00:00:00.0000 TDB 
   2.113482890263196E+01 -3.611323089665979E+01  5.467920438977536E+00
2466459.500000000 = A.D. 2040-Nov-01 00:00:00.0000 TDB 
   2.115083476888922E+01 -3.610343965449478E+01  5.466910633868754E+00
2466466.500000000 = A.D. 2040-Nov-08 00:00:00.0000 TDB 
   2.116683654857006E+01 -3.609364143658408E+01  5.465899772447025E+00
2466473.500000000 = A.D. 2040-Nov-15 00:00:00.0000 TDB 
   2.118283423844002E+01 -3.608383624458313E+01  5.464887854871844E+00
2466480.500000000 = A.D. 2040-Nov-22 00:00:00.0000 TDB 
   2.119882783526523E+01 -3.607402408014897E+01  5.463874881302936E+00
2466487.500000000 = A.D. 2040-Nov-29 00:00:00.0000 TDB 
   2.121481733581235E+01 -3.606420494494017E+01  5.462860851900253E+00
2466494.500000000 = A.D. 2040-Dec-06 00:00:00.0000 TDB 
   2.123080273684862E+01 -3.605437884061679E+01  5.461845766823939E+00
2466501.500000000 = A.D. 2040-Dec-13 00:00:00.0000 TDB 
   2.124678403514185E+01 -3.604454576884052E+01  5.460829626234386E+00
2466508.500000000 = A.D. 2040-Dec-20 00:00:00.0000 TDB 
   2.126276122746038E+01 -3.603470573127451E+01  5.459812430292183E+00
2466515.500000000 = A.D. 2040-Dec-27 00:00:00.0000 TDB 
   2.127873431057316E+01 -3.602485872958349E+01  5.458794179158149E+00
